SL-16 R/B               
1 25400U 98043G   26001.58477988  .00000178  00000+0  93442-4 0  9991
2 25400  98.8152 314.5166 0009346 203.6949 156.3802 14.26031280429420
SL-16 R/B               
1 25407U 98045B   26001.33026686  .00000035  00000+0  41628-4 0  9999
2 25407  71.0127 323.2275 0005681 143.7240 216.4270 14.16181684417568
ISS (ZARYA)             
1 25544U 98067A   26001.53284554  .00016743  00000+0  31110-3 0  9994
2 25544  51.6329  44.4619 0007509 327.7813  32.2715 15.49008068545924
CZ-4B R/B               
1 25732U 99025C   26001.58448558  .00000161  00000+0  98276-4 0  9993
2 25732  98.6740  47.4178 0037204 176.4576 300.4454 14.18249199378655
OKEAN-O                 
1 25860U 99039A   26001.59651812  .00001552  00000+0  21105-3 0  9991
2 25860  97.9575  62.1240 0001329 114.2340 245.9010 14.80202328424461
SL-16 R/B               
1 25861U 99039B   26001.16735686  .00001111  00000+0  14790-3 0  9990
2 25861  98.0098  60.3172 0016042 114.6091 245.6795 14.81619164426867
DELTA 2 R/B             
1 25876U 99041E   26001.61045008  .00003281  00000+0  56532-3 0  9991
2 25876  51.7595 209.1209 0504198 150.3329 212.7236 14.11474015353557
HELIOS 1B               
1 25977U 99064A   26001.64983694  .00004042  00000+0  45355-3 0  9990
2 25977  98.1753 261.9061 0000488  39.1158 321.0092 14.87378010675292
TERRA                   
1 25994U 99068A   26001.61415539  .00001007  00000+0  21473-3 0  9991
2 25994  97.9721  57.5665 0003148  54.1768  99.2806 14.60928687385288
SL-16 R/B               
1 26070U 00006B   26001.61077780  .00000310  00000+0  18154-3 0  9991
2 26070  71.0014 238.8777 0018765 281.9274  77.9745 14.15813655339061
TITAN 4B R/B            
1 26474U 00047B   26001.62977661  .00006215  00000+0  39444-3 0  9997
2 26474  67.9886 228.9887 0037600 120.3809 240.1066 15.08946276382798
ENVISAT                 
1 27386U 02009A   25365.95019499  .00000264  00000+0  99422-4 0  9995
2 27386  98.3626 316.2065 0001107  88.1807 295.1197 14.39007536249430
